{
  "type": "FeatureCollection",
  "features": [
    {
      "type": "Feature",
      "properties": {
        "norad_id": 26766,
        "name": "INTELSAT 10 (IS-10)",
        "group": "intelsat",
        "lat": 7.541949548407064,
        "lon": -179.26948871093418,
        "alt_km": 36135.144892735974,
        "timestamp": "2025-12-22T23:36:20.367351+00:00",
        "meta_object_name": "INTELSAT 10 (IS-10)",
        "meta_object_id": "2001-019A",
        "meta_epoch": "2025-12-21T17:53:39.051168",
        "meta_mean_motion": 0.99073842,
        "meta_eccentricity": 0.00077363,
        "meta_inclination": 8.6495,
        "meta_ra_of_asc_node": 61.0661,
        "meta_arg_of_pericenter": 228.4282,
        "meta_mean_anomaly": 169.4863,
        "meta_ephemeris_type": 0,
        "meta_classification_type": "U",
        "meta_norad_cat_id": 26766,
        "meta_element_set_no": 999,
        "meta_rev_at_epoch": 4382,
        "meta_bstar": 0,
        "meta_mean_motion_dot": -7.1e-07,
        "meta_mean_motion_ddot": 0,
        "tle_line1": "1 26766U 01019A   25355.74559087 -.00000071  00000+0  00000+0 0  9990",
        "tle_line2": "2 26766   8.6495  61.0661 0007736 228.4282 169.4863  0.99073842 43828"
      },
      "geometry": {
        "type": "Point",
        "coordinates": [
          -179.26948871093418,
          7.541949548407064
        ]
      }
    },
    {
      "type": "Feature",
      "properties": {
        "norad_id": 26900,
        "name": "INTELSAT 902 (IS-902)",
        "group": "intelsat",
        "lat": -3.498807081836125,
        "lon": 35.87077168263907,
        "alt_km": 35800.3247869739,
        "timestamp": "2025-12-22T23:36:20.367376+00:00",
        "meta_object_name": "INTELSAT 902 (IS-902)",
        "meta_object_id": "2001-039A",
        "meta_epoch": "2025-12-15T13:09:02.081664",
        "meta_mean_motion": 1.0027087,
        "meta_eccentricity": 0.00045028,
        "meta_inclination": 5.6536,
        "meta_ra_of_asc_node": 74.0372,
        "meta_arg_of_pericenter": 189.6359,
        "meta_mean_anomaly": 327.9329,
        "meta_ephemeris_type": 0,
        "meta_classification_type": "U",
        "meta_norad_cat_id": 26900,
        "meta_element_set_no": 999,
        "meta_rev_at_epoch": 8885,
        "meta_bstar": 0,
        "meta_mean_motion_dot": -2.65e-06,
        "meta_mean_motion_ddot": 0,
        "tle_line1": "1 26900U 01039A   25349.54794076 -.00000265  00000+0  00000+0 0  9997",
        "tle_line2": "2 26900   5.6536  74.0372 0004502 189.6359 327.9329  1.00270870 88858"
      },
      "geometry": {
        "type": "Point",
        "coordinates": [
          35.87077168263907,
          -3.498807081836125
        ]
      }
    },
    {
      "type": "Feature",
      "properties": {
        "norad_id": 27380,
        "name": "INTELSAT 904 (IS-904)",
        "group": "intelsat",
        "lat": -1.872464424545952,
        "lon": 54.471133056934335,
        "alt_km": 35787.33119849444,
        "timestamp": "2025-12-22T23:36:20.367392+00:00",
        "meta_object_name": "INTELSAT 904 (IS-904)",
        "meta_object_id": "2002-007A",
        "meta_epoch": "2025-12-22T04:54:51.714144",
        "meta_mean_motion": 1.00270344,
        "meta_eccentricity": 0.00019271,
        "meta_inclination": 6.4767,
        "meta_ra_of_asc_node": 71.3235,
        "meta_arg_of_pericenter": 249.6,
        "meta_mean_anomaly": 172.2947,
        "meta_ephemeris_type": 0,
        "meta_classification_type": "U",
        "meta_norad_cat_id": 27380,
        "meta_element_set_no": 999,
        "meta_rev_at_epoch": 4999,
        "meta_bstar": 0,
        "meta_mean_motion_dot": -2.08e-06,
        "meta_mean_motion_ddot": 0,
        "tle_line1": "1 27380U 02007A   25356.20476521 -.00000208  00000+0  00000+0 0  9996",
        "tle_line2": "2 27380   6.4767  71.3235 0001927 249.6000 172.2947  1.00270344 49997"
      },
      "geometry": {
        "type": "Point",
        "coordinates": [
          54.471133056934335,
          -1.872464424545952
        ]
      }
    },
    {
      "type": "Feature",
      "properties": {
        "norad_id": 27426,
        "name": "DIRECTV 5 (TEMPO 1)",
        "group": "intelsat",
        "lat": -4.349633952464858,
        "lon": -24.25827859930126,
        "alt_km": 35779.40291537849,
        "timestamp": "2025-12-22T23:36:20.367406+00:00",
        "meta_object_name": "DIRECTV 5 (TEMPO 1)",
        "meta_object_id": "2002-023A",
        "meta_epoch": "2025-12-22T10:50:46.115232",
        "meta_mean_motion": 1.00271748,
        "meta_eccentricity": 0.00031937,
        "meta_inclination": 4.4253,
        "meta_ra_of_asc_node": 77.5393,
        "meta_arg_of_pericenter": 200.6737,
        "meta_mean_anomaly": 225.6165,
        "meta_ephemeris_type": 0,
        "meta_classification_type": "U",
        "meta_norad_cat_id": 27426,
        "meta_element_set_no": 999,
        "meta_rev_at_epoch": 8635,
        "meta_bstar": 0,
        "meta_mean_motion_dot": -3.8e-07,
        "meta_mean_motion_ddot": 0,
        "tle_line1": "1 27426U 02023A   25356.45192263 -.00000038  00000+0  00000+0 0  9991",
        "tle_line2": "2 27426   4.4253  77.5393 0003193 200.6737 225.6165  1.00271748 86355"
      },
      "geometry": {
        "type": "Point",
        "coordinates": [
          -24.25827859930126,
          -4.349633952464858
        ]
      }
    },
    {
      "type": "Feature",
      "properties": {
        "norad_id": 27438,
        "name": "INTELSAT 905 (IS-905)",
        "group": "intelsat",
        "lat": -5.29547135096021,
        "lon": -51.47762132033176,
        "alt_km": 35776.570413610585,
        "timestamp": "2025-12-22T23:36:20.367419+00:00",
        "meta_object_name": "INTELSAT 905 (IS-905)",
        "meta_object_id": "2002-027A",
        "meta_epoch": "2025-12-22T11:32:40.739712",
        "meta_mean_motion": 1.00273062,
        "meta_eccentricity": 0.00027239,
        "meta_inclination": 6.3084,
        "meta_ra_of_asc_node": 71.9438,
        "meta_arg_of_pericenter": 204.9148,
        "meta_mean_anomaly": 210.3946,
        "meta_ephemeris_type": 0,
        "meta_classification_type": "U",
        "meta_norad_cat_id": 27438,
        "meta_element_set_no": 999,
        "meta_rev_at_epoch": 4959,
        "meta_bstar": 0,
        "meta_mean_motion_dot": 1.12e-06,
        "meta_mean_motion_ddot": 0,
        "tle_line1": "1 27438U 02027A   25356.48102708  .00000112  00000+0  00000+0 0  9998",
        "tle_line2": "2 27438   6.3084  71.9438 0002723 204.9148 210.3946  1.00273062 49594"
      },
      "geometry": {
        "type": "Point",
        "coordinates": [
          -51.47762132033176,
          -5.29547135096021
        ]
      }
    },
    {
      "type": "Feature",
      "properties": {
        "norad_id": 27445,
        "name": "GALAXY 3C (G-3C)",
        "group": "intelsat",
        "lat": -3.2973767215594783,
        "lon": -8.995736054947363,
        "alt_km": 35791.0894866327,
        "timestamp": "2025-12-22T23:36:20.367431+00:00",
        "meta_object_name": "GALAXY 3C (G-3C)",
        "meta_object_id": "2002-030A",
        "meta_epoch": "2025-12-22T11:43:11.504640",
        "meta_mean_motion": 1.00271668,
        "meta_eccentricity": 0.00010961,
        "meta_inclination": 3.2865,
        "meta_ra_of_asc_node": 80.4036,
        "meta_arg_of_pericenter": 79.8952,
        "meta_mean_anomaly": 11.9345,
        "meta_ephemeris_type": 0,
        "meta_classification_type": "U",
        "meta_norad_cat_id": 27445,
        "meta_element_set_no": 999,
        "meta_rev_at_epoch": 4472,
        "meta_bstar": 0,
        "meta_mean_motion_dot": -1.33e-06,
        "meta_mean_motion_ddot": 0,
        "tle_line1": "1 27445U 02030A   25356.48832760 -.00000133  00000+0  00000+0 0  9992",
        "tle_line2": "2 27445   3.2865  80.4036 0001096  79.8952  11.9345  1.00271668 44726"
      },
      "geometry": {
        "type": "Point",
        "coordinates": [
          -8.995736054947363,
          -3.2973767215594783
        ]
      }
    },
    {
      "type": "Feature",
      "properties": {
        "norad_id": 27513,
        "name": "INTELSAT 906 (IS-906)",
        "group": "intelsat",
        "lat": 5.186753902187631,
        "lon": 149.8827655768957,
        "alt_km": 35800.38655955762,
        "timestamp": "2025-12-22T23:36:20.367444+00:00",
        "meta_object_name": "INTELSAT 906 (IS-906)",
        "meta_object_id": "2002-041A",
        "meta_epoch": "2025-12-21T20:19:33.988224",
        "meta_mean_motion": 1.00273099,
        "meta_eccentricity": 0.00063058,
        "meta_inclination": 5.3527,
        "meta_ra_of_asc_node": 75.1232,
        "meta_arg_of_pericenter": 200.0655,
        "meta_mean_anomaly": 184.499,
        "meta_ephemeris_type": 0,
        "meta_classification_type": "U",
        "meta_norad_cat_id": 27513,
        "meta_element_set_no": 999,
        "meta_rev_at_epoch": 8525,
        "meta_bstar": 0,
        "meta_mean_motion_dot": 3.1e-07,
        "meta_mean_motion_ddot": 0,
        "tle_line1": "1 27513U 02041A   25355.84692116  .00000031  00000+0  00000+0 0  9994",
        "tle_line2": "2 27513   5.3527  75.1232 0006305 200.0655 184.4990  1.00273099 85250"
      },
      "geometry": {
        "type": "Point",
        "coordinates": [
          149.8827655768957,
          5.186753902187631
        ]
      }
    }
  ]
}